IRIDIUM 166             
1 43570U 18061B   24088.58483538  .00000377  00000+0  12770-3 0  9997
2 43570  86.4000  35.4800 0002562  85.6284 274.5205 14.34221592297216
IRIDIUM 158             
1 43571U 18061C   24088.55312701  .00000161  00000+0  50259-4 0  9994
2 43571  86.4000  35.5023 0002306  81.5391 278.6066 14.34216436297171
IRIDIUM 165             
1 43572U 18061D   24088.57850196  .00000341  00000+0  11480-3 0  9994
2 43572  86.4002  35.5226 0002329  80.4704 279.6755 14.34217240297204
IRIDIUM 155             
1 43573U 18061E   24088.40089970  .00000727  00000+0  25267-3 0  9997
2 43573  86.3996  35.5061 0002431  85.6635 274.4838 14.34208666297147
IRIDIUM 154             
1 43574U 18061F   24088.31210790  .00000094  00000+0  26350-4 0  9996
2 43574  86.4001  35.6371 0001980  86.1675 273.9747 14.34218769297181
IRIDIUM 163             
1 43575U 18061G   24088.57214926  .00000305  00000+0  10169-3 0  9995
2 43575  86.4000  35.4694 0002234  87.3264 272.8188 14.34216741297193
IRIDIUM 156             
1 43576U 18061H   24088.54678797  .00000629  00000+0  21741-3 0  9990
2 43576  86.3997  35.4858 0002370  81.9544 278.1921 14.34216984297184
IRIDIUM 164             
1 43577U 18061J   24088.59751901  .00000447  00000+0  15262-3 0  9994
2 43577  86.4001  35.4924 0002145  80.7114 279.4324 14.34221370297238
